STARLINK-1786
1 26688C 20073U   21325.12415081 -.00047315  00000-0 -40374-3 0  3255
2 26688  53.0555  80.7888 0002136  29.0391 266.9791 15.68898398    18
